NUSAT-1 (FRESCO)        
1 41557U 16033B   22174.23771876  .00012320  00000+0  36631-3 0  9991
2 41557  97.3883 271.9433 0010319   5.3791  24.2100 15.34838862338270
BEESAT-4                
1 41619U 16040W   22174.12772897  .00013531  00000+0  44907-3 0  9990
2 41619  97.2167 224.6054 0011360  98.4785 261.7745 15.31286431321596
CAS-2T & KS-1Q          
1 41847U 16066G   22173.76811888  .00000887  00000+0  14296-3 0  9992
2 41847  98.5508 238.4345 0363583 193.8045 165.2993 14.38592161295111
NAYIF-1 (EO-88)         
1 42017U 17008BX  22173.84574909  .00015643  00000+0  46538-3 0  9998
2 42017  97.2685 239.8813 0004514 204.4217 155.6813 15.34804192297904
ZHUHAI-1 02 (CAS-4B)    
1 42759U 17034B   22174.25619321  .00004414  00000+0  26538-3 0  9996
2 42759  43.0184 300.7160 0010141 321.4589 114.7500 15.11961618277233
ZHUHAI-1 01 (CAS-4A)    
1 42761U 17034D   22174.22448691  .00003906  00000+0  23580-3 0  9995
2 42761  43.0183 299.6752 0010408 322.6242 107.8395 15.12047632277230
MAX VALIER SAT          
1 42778U 17036P   22173.89337706  .00007587  00000+0  28782-3 0  9999
2 42778  97.2048 214.8074 0008984 313.1434  46.9053 15.27094931277738
RADFXSAT (FOX-1B)       
1 43017U 17073E   22173.64042370  .00002707  00000+0  20670-3 0  9997
2 43017  97.6752  67.6225 0248761 170.5217 190.0821 14.81422017247882
FOX-1D (AO-92)          
1 43137U 18004AC  22173.65664494  .00008690  00000+0  30629-3 0  9995
2 43137  97.3684 248.7660 0006931 356.0177   4.1007 15.29496055247144
DIWATA-2B               
1 43678U 18084H   22174.14936265  .00001228  00000+0  12634-3 0  9992
2 43678  97.9715 307.4813 0008440 266.0792  93.9427 14.92185293198705
ES'HAIL 2               
1 43700U 18090A   22174.14375491  .00000145  00000+0  00000+0 0  9990
2 43700   0.0182  27.7519 0001112  84.6901 236.3776  1.00272396 13335
FOX-1CLIFF (AO-95)      
1 43770U 18099N   22173.87275896  .00002911  00000+0  26115-3 0  9995
2 43770  97.6209 240.0820 0012317 254.9155 105.0704 14.96466354193825
ITASAT 1                
1 43786U 18099AE  22173.73179720  .00002503  00000+0  22445-3 0  9995
2 43786  97.6229 240.8661 0013243 247.1240 112.8584 14.96604243193848
JY1SAT (JO-97)          
1 43803U 18099AX  22173.94833771  .00002559  00000+0  22635-3 0  9993
2 43803  97.6202 240.8341 0012932 245.7734 114.2137 14.97111792193898
UWE-4                   
1 43880U 18111E   22174.01093007  .00002843  00000+0  24437-3 0  9990
2 43880  97.6673  80.2242 0010248 306.1192  53.9081 14.98185852188530
NEXUS (FO-99)           
1 43937U 19003F   22173.66041520  .00012142  00000+0  40696-3 0  9995
2 43937  97.1298 206.8085 0022326 132.4399 227.8736 15.30809207190773
PSAT2 (NO-104)          
1 44354U 19036R   22173.26145666  .00079158 -46961-5  70228-3 0  9994
2 44354  28.5237 145.0168 0227784  24.8333 336.3040 15.40433536165428
JAISAT-1                
1 44419U 19038F   22174.17420389  .00007311  00000+0  36705-3 0  9998
2 44419  97.6354 144.3427 0021313 109.8665 250.4868 15.17405321163921
DUCHIFAT-3              
1 44854U 19089C   22174.09405796  .00003650  00000+0  28545-3 0  9998
2 44854  36.9657  66.9043 0009753 270.9226  89.0401 15.01118007138786
CAS-6 (TO-108)          
1 44881U 19093C   22174.18355064  .00000621  00000+0  85366-4 0  9995
2 44881  97.8926 253.3105 0015388 162.3216 197.8545 14.81735521135626
RS-44 & BREEZE-KM R/B   
1 44909U 19096E   22173.89798719  .00000009  00000+0 -68951-6 0  9998
2 44909  82.5212 226.6584 0216395 307.2060  50.9462 12.79713507116203
ORBITAL FACTORY 2 (OF-2)
1 45113U 19071C   22173.79958264  .00024696  00000+0  50928-3 0  9990
2 45113  51.6400  33.0589 0009999 186.7988 173.2865 15.45690159134200
HUSKYSAT-1 (HO-107)     
1 45119U 19071J   22173.80856574  .00022568  00000+0  48157-3 0  9996
2 45119  51.6397  33.0935 0009840 183.4638 176.6282 15.44741883134195
BY70-2                  
1 45857U 20042B   22174.24131442  .00007171  00000+0  95566-3 0  9993
2 45857  97.9544 251.0257 0012479  99.9723 260.2897 14.79885325106310
SALSAT                  
1 46495U 20068K   22173.81629553  .00001390  00000+0  10351-3 0  9993
2 46495  97.7293 115.1183 0014541 258.3345 101.6249 15.04537974 94991
BY70-3                  
1 46839U 20079N   22174.14036391  .00023640  00000+0  55092-3 0  9999
2 46839  97.1981 246.1603 0003718 316.3352  73.3315 15.42249592 91129
RADFXSAT-2 (AO-109)     
1 47311U 21002C   22174.17136668  .00007222  00000+0  29348-3 0  9996
2 47311  60.6863 340.7217 0017137 340.6248  19.4186 15.25388441 79340
UVSQ-SAT                
1 47438U 21006AB  22173.89153076  .00005407  00000+0  28656-3 0  9994
2 47438  97.4370 232.7901 0010309 252.4762 107.5345 15.15757157 78108
DIY-1 (ARDUIQUBE)       
1 47963U 21022AH  22173.96578412  .00014095  00000+0  78365-3 0  9993
2 47963  97.5319  75.2608 0019103 110.3473 249.9813 15.13637034 67783
XW-3 (CAS-9)            
1 50466U 21131B   22174.15400805  .00000142  00000+0  61032-4 0  9990
2 50466  98.5804 251.4053 0005790 125.7661 234.4065 14.38502817 25736
TEVEL-3                 
1 50988U 22002E   22174.16874188  .00007553  00000+0  41321-3 0  9998
2 50988  97.4813 241.0558 0010648  53.1331 333.6584 15.14494460 24280
TEVEL-8                 
1 50989U 22002F   22174.17377166  .00007528  00000+0  41244-3 0  9990
2 50989  97.4826 241.0784 0010666  52.2744 333.0255 15.14442599 24289
TEVEL-5                 
1 50998U 22002Q   22174.12219322  .00007444  00000+0  40176-3 0  9994
2 50998  97.4802 241.1020 0012105  47.7956 341.6944 15.14967547 24286
TEVEL-6                 
1 50999U 22002R   22174.12158854  .00007467  00000+0  40294-3 0  9993
2 50999  97.4802 241.1006 0012019  47.4047 340.7381 15.14972027 24287
TEVEL-1                 
1 51013U 22002AF  22174.17090463  .00007526  00000+0  41202-3 0  9993
2 51013  97.4808 241.0423 0010527  52.5086 333.5855 15.14470458 24282
TEVEL-7                 
1 51062U 22002CG  22174.17503715  .00007485  00000+0  41022-3 0  9990
2 51062  97.4820 241.0693 0010713  51.2751 333.6515 15.14432280 24286
TEVEL-4                 
1 51063U 22002CH  22174.17548821  .00007471  00000+0  40957-3 0  9999
2 51063  97.4822 241.0686 0010695  50.9215 333.7656 15.14424481 24282
TEVEL-2                 
1 51069U 22002CP  22174.11477694  .00007588  00000+0  41523-3 0  9997
2 51069  97.4804 240.9921 0010608  52.8321  34.3178 15.14486293 24272
